BEIDOU 3 (C01)          
1 36287U 10001A   23041.56161881 -.00000269  00000+0  00000+0 0  9990
2 36287   1.9381  52.7002 0002895 271.2095 159.0856  1.00272426 47904
BEIDOU 5 (C06)          
1 36828U 10036A   23041.85800609 -.00000103  00000+0  00000+0 0  9996
2 36828  54.2091 174.0510 0034991 184.5301 199.0716  1.00282395 45974
BEIDOU 6 (C04)          
1 37210U 10057A   23041.88866617 -.00000099  00000+0  00000+0 0  9993
2 37210   0.9776  54.1213 0004543 179.3055  27.2643  1.00272311 45028
BEIDOU 7 (C07)          
1 37256U 10068A   23041.83048913 -.00000170  00000+0  00000+0 0  9991
2 37256  49.7823 286.7875 0023243 206.1255  53.7208  1.00292675 44539
BEIDOU 8 (C08)          
1 37384U 11013A   23041.65797735 -.00000149  00000+0  00000+0 0  9993
2 37384  60.6437  51.9062 0024579 188.5883 242.7049  1.00291169 43413
BEIDOU 9 (C09)          
1 37763U 11038A   23041.33734353 -.00000028  00000+0  00000+0 0  9999
2 37763  54.4878 176.5649 0103729 227.4858 313.0697  1.00273935 42386
BEIDOU 10 (C10)         
1 37948U 11073A   23041.83018383 -.00000127  00000+0  00000+0 0  9996
2 37948  49.9040 286.4416 0085247 220.2896  28.9314  1.00279989 41147
BEIDOU 11 (C05)         
1 38091U 12008A   23041.86307172  .00000069  00000+0  00000+0 0  9999
2 38091   2.1112  71.7004 0013160 308.3262 130.0443  1.00269900 40224
BEIDOU 12 (C11)         
1 38250U 12018A   23041.11833500 -.00000076  00000+0  00000+0 0  9993
2 38250  56.6116 345.7020 0023865 262.2045 172.1400  1.86231326 73514
BEIDOU 13 (C12)         
1 38251U 12018B   23041.22035556 -.00000076  00000+0  00000+0 0  9991
2 38251  56.5251 345.0075 0015265 267.4386 279.6405  1.86234190 73517
BEIDOU 15 (C14)         
1 38775U 12050B   23041.18320269  .00000001  00000+0  00000+0 0  9998
2 38775  55.5486 103.6891 0012824 322.5116  34.8806  1.86231197 70880
BEIDOU 16 (C02)         
1 38953U 12059A   23041.59771503 -.00000163  00000+0  00000+0 0  9991
2 38953   1.5136  82.4133 0010744 295.6049  61.5801  1.00270508 37787
BEIDOU 17 (C31)         
1 40549U 15019A   23041.89994530 -.00000143  00000+0  00000+0 0  9992
2 40549  51.4673 309.9761 0035890 193.5890  52.1372  1.00301832 28823
BEIDOU 18 (C57)         
1 40748U 15037A   23041.35811619 -.00000077  00000+0  00000+0 0  9996
2 40748  55.7714 343.7242 0004866 349.0710 199.4897  1.86233214 51347
BEIDOU 19 (C58)         
1 40749U 15037B   23040.60710323 -.00000078  00000+0  00000+0 0  9995
2 40749  55.7753 343.7398 0007012 321.9889 217.0672  1.86232922 51326
BEIDOU 20 (C18)         
1 40938U 15053A   23041.47103309 -.00000094  00000+0  00000+0 0  9997
2 40938  51.1282 273.1284 0043194 193.1749 299.3034  1.00284723 27081
BEIDOU IGSO-6 (C13)     
1 41434U 16021A   23041.86267179 -.00000131  00000+0  00000+0 0  9996
2 41434  58.4462  50.3716 0049124 225.2683 271.8615  1.00279356 25221
BEIDOU-2 G7 (C03)       
1 41586U 16037A   23041.77080999 -.00000342  00000+0  00000+0 0  9998
2 41586   1.9139  70.6511 0008023 346.4473 111.4156  1.00276747 24529
BEIDOU-3 M1 (C19)       
1 43001U 17069A   23040.95695591  .00000002  00000+0  00000+0 0  9999
2 43001  55.6998 103.7273 0010850 287.6593  74.4985  1.86231502 35822
BEIDOU-3 M2 (C20)       
1 43002U 17069B   23041.42494425  .00000001  00000+0  00000+0 0  9995
2 43002  55.6988 103.7481 0008140 307.7031  50.9642  1.86231266 35818
BEIDOU-3 M3 (C27)       
1 43107U 18003A   23040.78484595 -.00000079  00000+0  00000+0 0  9991
2 43107  55.2235 344.5555 0004391  42.0597  53.9850  1.86232319 34578
BEIDOU-3 M4 (C28)       
1 43108U 18003B   23040.29270310 -.00000080  00000+0  00000+0 0  9998
2 43108  55.2190 344.5611 0004033 272.6489 256.0007  1.86230772 34566
BEIDOU-3 M5 (C21)       
1 43207U 18018A   23040.48467791  .00000003  00000+0  00000+0 0  9990
2 43207  55.6582 103.8495 0005001 325.8773  34.1688  1.86231455 33955
BEIDOU-3 M6 (C22)       
1 43208U 18018B   23041.08824140  .00000002  00000+0  00000+0 0  9992
2 43208  55.6586 103.8343 0008257 294.9223  65.0689  1.86231574 33961
BEIDOU-3 M7 (C29)       
1 43245U 18029A   23040.91948050 -.00000078  00000+0  00000+0 0  9997
2 43245  55.1288 342.3027 0001661 317.7181 139.2134  1.86232473 33119
BEIDOU-3 M8 (C30)       
1 43246U 18029B   23040.30899696 -.00000079  00000+0  10000-3 0  9998
2 43246  55.1256 342.3526 0004900 350.1417 104.2123  1.86232642 33096
BEIDOU IGSO-7 (C16)     
1 43539U 18057A   23041.86245752 -.00000104  00000+0  00000+0 0  9998
2 43539  55.1031 173.6370 0056314 228.0658 159.7906  1.00293613 16906
BEIDOU-3 M9 (C23)       
1 43581U 18062A   23041.46733172  .00000089  00000+0  00000+0 0  9996
2 43581  54.2169 223.9414 0001838 338.0989  24.5478  1.86231888 30867
BEIDOU-3 M10 (C24)      
1 43582U 18062B   23041.08028781  .00000085  00000+0  00000+0 0  9994
2 43582  54.2168 223.9444 0006968  32.3582 162.4867  1.86229620 30856
BEIDOU-3 M11 (C25)      
1 43602U 18067A   23040.98737241  .00000084  00000+0  00000+0 0  9997
2 43602  54.3015 222.5841 0007975  23.2119 150.5229  1.86231573 30345
BEIDOU-3 M12 (C26)      
1 43603U 18067B   23041.13433149  .00000086  00000+0  00000+0 0  9998
2 43603  54.2987 222.5454 0004832  19.5111 163.0820  1.86231497 30365
BEIDOU-3 M13 (C32)      
1 43622U 18072A   23040.82313470  .00000002  00000+0  00000+0 0  9992
2 43622  55.6265 103.3849 0007258 280.4760  81.9686  1.86231358 29876
BEIDOU-3 M14 (C33)      
1 43623U 18072B   23040.85010671  .00000002  00000+0  00000+0 0  9993
2 43623  55.6282 103.3766 0004743 300.9787 169.7870  1.86231333 29870
BEIDOU-3 M15 (C34)      
1 43647U 18078A   23040.44802310 -.00000079  00000+0  10000-3 0  9999
2 43647  55.0244 342.4579 0008281 359.8855  95.9160  1.86227435 29371
BEIDOU-3 M16 (C35)      
1 43648U 18078B   23041.24437696 -.00000078  00000+0  00000+0 0  9994
2 43648  55.0196 342.4358 0005193   6.3959 172.0516  1.86232121 29405
BEIDOU-3 G1 (C59)       
1 43683U 18085A   23041.77665005 -.00000266  00000+0  00000+0 0  9995
2 43683   1.1081 142.6862 0001989  36.7680  20.7562  1.00274606 15793
BEIDOU-3 M17 (C36)      
1 43706U 18093A   23040.05395060  .00000075  00000+0  00000+0 0  9998
2 43706  54.3003 223.8920 0006708 288.9107  71.0099  1.86232027 28725
BEIDOU-3 M18 (C37)      
1 43707U 18093B   23041.54144957  .00000090  00000+0  00000+0 0  9998
2 43707  54.2999 223.8328 0006580 328.6630  40.0107  1.86232198 28761
BEIDOU-3 IGSO-1 (C38)   
1 44204U 19023A   23041.42063426 -.00000187  00000+0  00000+0 0  9991
2 44204  56.9227  50.4219 0020613 208.8559 150.7630  1.00291660 14098
BEIDOU-2 G8             
1 44231U 19027A   23041.56240329 -.00000235  00000+0  00000+0 0  9993
2 44231   1.4432  80.8482 0005617 145.6818 260.8393  1.00274282 13812
BEIDOU-3 IGSO-2 (C39)   
1 44337U 19035A   23040.64406388 -.00000121  00000+0  00000+0 0  9990
2 44337  55.1392 169.6165 0029587 193.8676 126.7394  1.00285153 13420
BEIDOU-3 M23 (C45)      
1 44542U 19061A   23040.52762018  .00000080  00000+0  00000+0 0  9992
2 44542  54.5270 224.0645 0008418   4.0250 355.9751  1.86231329 23004
BEIDOU-3 M24 (C46)      
1 44543U 19061B   23040.62597953  .00000081  00000+0  00000+0 0  9999
2 44543  54.5238 224.0310 0005441   2.6233 334.9216  1.86231693 22990
BEIDOU-3 IGSO-3         
1 44709U 19073A   23035.97231126 -.00000151  00000+0  00000+0 0  9994
2 44709  56.8904 293.9658 0028810 179.3727 129.4196  1.00291612 12125
BEIDOU-3 M21            
1 44793U 19078A   23041.11498701 -.00000078  00000+0  10000-3 0  9992
2 44793  54.8725 342.4274 0007029   6.7169 131.1677  1.86232042 21875
BEIDOU-3 M22            
1 44794U 19078B   23040.24396613 -.00000080  00000+0  00000+0 0  9993
2 44794  54.8467 342.4442 0005189 358.3750 187.6124  1.86232513 21857
BEIDOU-3 M19            
1 44864U 19090A   23041.29149478  .00000001  00000+0  00000+0 0  9998
2 44864  55.5622 103.5672 0018014 270.0098  92.4929  1.86231711 21465
BEIDOU-3 M20            
1 44865U 19090B   23041.15769664  .00000001  00000+0  00000+0 0  9999
2 44865  55.5642 103.6043 0016068 283.3817  79.2402  1.86231655 21437
BEIDOU-3 G2             
1 45344U 20017A   23041.11925694 -.00000130  00000+0  00000+0 0  9990
2 45344   1.9878   4.8461 0000941 346.9691 271.0837  1.00272384 10994
BEIDOU-3 G3             
1 45807U 20040A   23041.73243896 -.00000341  00000+0  00000+0 0  9999
2 45807   0.9302 314.9603 0007934 336.7707 222.9399  1.00276970  9829
